{"type": "FeatureCollection", "features": [ {"type": "Feature", "properties": {"norad_id": 36011, "name": "IRIDIUM 33 DEB", "group": "iridium-33-debris", "lat": -53.223337789800425, "lon": -138.4791887946133, "alt_km": 749.0205335211631, "timestamp": "2025-12-09T23:33:24.239791+00:00", "meta": {"OBJECT_NAME": "IRIDIUM 33 DEB", "OBJECT_ID": "1997-051US", "EPOCH": "2025-12-08T10:05:26.079072", "MEAN_MOTION": 14.41310203, "ECCENTRICITY": 0.00172479, "INCLINATION": 86.3414, "RA_OF_ASC_NODE": 37.2804, "ARG_OF_PERICENTER": 231.0749, "MEAN_ANOMALY": 187.2759, "EPHEMERIS_TYPE": 0, "CLASSIFICATION_TYPE": "U", "NORAD_CAT_ID": 36011, "ELEMENT_SET_NO": 999, "REV_AT_EPOCH": 64478, "BSTAR": 0.00083412768, "MEAN_MOTION_DOT": 2.72e-05, "MEAN_MOTION_DDOT": 0}, "tle": {"line1": "1 36011U 97051US  25342.42044073  .00002720  00000+0  83413-3 0  9995", "line2": "2 36011  86.3414  37.2804 0017247 231.0749 187.2759 14.41310203644787"}}, "geometry": {"type": "Point", "coordinates": [-138.4791887946133, -53.223337789800425]}}, {"type": "Feature", "properties": {"norad_id": 36012, "name": "IRIDIUM 33 DEB", "group": "iridium-33-debris", "lat": 22.255847157517458, "lon": -49.894916815103066, "alt_km": 879.1192610791095, "timestamp": "2025-12-09T23:33:24.239802+00:00", "meta": {"OBJECT_NAME": "IRIDIUM 33 DEB", "OBJECT_ID": "1997-051UT", "EPOCH": "2025-12-09T14:59:18.724992", "MEAN_MOTION": 14.18848487, "ECCENTRICITY": 0.02124515, "INCLINATION": 86.4428, "RA_OF_ASC_NODE": 308.7902, "ARG_OF_PERICENTER": 273.2722, "MEAN_ANOMALY": 84.4182, "EPHEMERIS_TYPE": 0, "CLASSIFICATION_TYPE": "U", "NORAD_CAT_ID": 36012, "ELEMENT_SET_NO": 999, "REV_AT_EPOCH": 65440, "BSTAR": 0.0096093467, "MEAN_MOTION_DOT": 0.00025103, "MEAN_MOTION_DDOT": 0}, "tle": {"line1": "1 36012U 97051UT  25343.62452228  .00025103  00000+0  96093-2 0  9991", "line2": "2 36012  86.4428 308.7902 0212451 273.2722  84.4182 14.18848487654404"}}, "geometry": {"type": "Point", "coordinates": [-49.894916815103066, 22.255847157517458]}}, {"type": "Feature", "properties": {"norad_id": 36028, "name": "IRIDIUM 33 DEB", "group": "iridium-33-debris", "lat": 66.3112431405222, "lon": -43.57388669894987, "alt_km": 560.582037583833, "timestamp": "2025-12-09T23:33:24.239812+00:00", "meta": {"OBJECT_NAME": "IRIDIUM 33 DEB", "OBJECT_ID": "1997-051VK", "EPOCH": "2025-12-09T15:13:45.378336", "MEAN_MOTION": 14.9504485, "ECCENTRICITY": 0.00219518, "INCLINATION": 86.3218, "RA_OF_ASC_NODE": 308.1579, "ARG_OF_PERICENTER": 62.5746, "MEAN_ANOMALY": 297.7712, "EPHEMERIS_TYPE": 0, "CLASSIFICATION_TYPE": "U", "NORAD_CAT_ID": 36028, "ELEMENT_SET_NO": 999, "REV_AT_EPOCH": 87078, "BSTAR": 0.0031387513, "MEAN_MOTION_DOT": 0.00034662, "MEAN_MOTION_DDOT": 0}, "tle": {"line1": "1 36028U 97051VK  25343.63455299  .00034662  00000+0  31388-2 0  9996", "line2": "2 36028  86.3218 308.1579 0021951  62.5746 297.7712 14.95044850870785"}}, "geometry": {"type": "Point", "coordinates": [-43.57388669894987, 66.3112431405222]}}, {"type": "Feature", "properties": {"norad_id": 36080, "name": "IRIDIUM 33 DEB", "group": "iridium-33-debris", "lat": 46.264770023577505, "lon": 13.045679457042521, "alt_km": 738.991713735124, "timestamp": "2025-12-09T23:33:24.239823+00:00", "meta": {"OBJECT_NAME": "IRIDIUM 33 DEB", "OBJECT_ID": "1997-051VM", "EPOCH": "2025-12-09T08:24:04.128192", "MEAN_MOTION": 14.46584309, "ECCENTRICITY": 0.0017863, "INCLINATION": 86.3197, "RA_OF_ASC_NODE": 9.4635, "ARG_OF_PERICENTER": 167.4902, "MEAN_ANOMALY": 192.6748, "EPHEMERIS_TYPE": 0, "CLASSIFICATION_TYPE": "U", "NORAD_CAT_ID": 36080, "ELEMENT_SET_NO": 999, "REV_AT_EPOCH": 47365, "BSTAR": 0.0010095558, "MEAN_MOTION_DOT": 3.665e-05, "MEAN_MOTION_DDOT": 0}, "tle": {"line1": "1 36080U 97051VM  25343.35004778  .00003665  00000+0  10096-2 0  9997", "line2": "2 36080  86.3197   9.4635 0017863 167.4902 192.6748 14.46584309473650"}}, "geometry": {"type": "Point", "coordinates": [13.045679457042521, 46.264770023577505]}}, {"type": "Feature", "properties": {"norad_id": 36083, "name": "IRIDIUM 33 DEB", "group": "iridium-33-debris", "lat": 7.647547183546186, "lon": -145.15048796305763, "alt_km": 741.3522713683924, "timestamp": "2025-12-09T23:33:24.239834+00:00", "meta": {"OBJECT_NAME": "IRIDIUM 33 DEB", "OBJECT_ID": "1997-051VQ", "EPOCH": "2025-12-06T21:32:26.892672", "MEAN_MOTION": 14.43175138, "ECCENTRICITY": 0.00247889, "INCLINATION": 86.3442, "RA_OF_ASC_NODE": 36.6683, "ARG_OF_PERICENTER": 243.3344, "MEAN_ANOMALY": 116.5319, "EPHEMERIS_TYPE": 0, "CLASSIFICATION_TYPE": "U", "NORAD_CAT_ID": 36083, "ELEMENT_SET_NO": 999, "REV_AT_EPOCH": 85365, "BSTAR": 0.00098432537, "MEAN_MOTION_DOT": 3.337e-05, "MEAN_MOTION_DDOT": 0}, "tle": {"line1": "1 36083U 97051VQ  25340.89753348  .00003337  00000+0  98433-3 0  9998", "line2": "2 36083  86.3442  36.6683 0024788 243.3344 116.5319 14.43175138853653"}}, "geometry": {"type": "Point", "coordinates": [-145.15048796305763, 7.647547183546186]}}, {"type": "Feature", "properties": {"norad_id": 36390, "name": "IRIDIUM 33 DEB", "group": "iridium-33-debris", "lat": 49.23299155622528, "lon": -55.029714199401425, "alt_km": 656.3851675469741, "timestamp": "2025-12-09T23:33:24.239844+00:00", "meta": {"OBJECT_NAME": "IRIDIUM 33 DEB", "OBJECT_ID": "1997-051VU", "EPOCH": "2025-12-08T14:44:10.068288", "MEAN_MOTION": 14.7351876, "ECCENTRICITY": 0.0029895, "INCLINATION": 86.2903, "RA_OF_ASC_NODE": 301.2813, "ARG_OF_PERICENTER": 175.8211, "MEAN_ANOMALY": 184.3262, "EPHEMERIS_TYPE": 0, "CLASSIFICATION_TYPE": "U", "NORAD_CAT_ID": 36390, "ELEMENT_SET_NO": 999, "REV_AT_EPOCH": 66201, "BSTAR": 0.0016262, "MEAN_MOTION_DOT": 0.00010673, "MEAN_MOTION_DDOT": 0}, "tle": {"line1": "1 36390U 97051VU  25342.61400542  .00010673  00000+0  16262-2 0  9996", "line2": "2 36390  86.2903 301.2813 0029895 175.8211 184.3262 14.73518760662010"}}, "geometry": {"type": "Point", "coordinates": [-55.029714199401425, 49.23299155622528]}}, {"type": "Feature", "properties": {"norad_id": 36483, "name": "IRIDIUM 33 DEB", "group": "iridium-33-debris", "lat": -49.69906444025599, "lon": 49.38836706305294, "alt_km": 754.121580810578, "timestamp": "2025-12-09T23:33:24.239855+00:00", "meta": {"OBJECT_NAME": "IRIDIUM 33 DEB", "OBJECT_ID": "1997-051VZ", "EPOCH": "2025-12-08T11:14:38.908896", "MEAN_MOTION": 14.45787314, "ECCENTRICITY": 0.00108756, "INCLINATION": 86.3794, "RA_OF_ASC_NODE": 54.3174, "ARG_OF_PERICENTER": 137.8715, "MEAN_ANOMALY": 222.3325, "EPHEMERIS_TYPE": 0, "CLASSIFICATION_TYPE": "U", "NORAD_CAT_ID": 36483, "ELEMENT_SET_NO": 999, "REV_AT_EPOCH": 65084, "BSTAR": 0.00090663472, "MEAN_MOTION_DOT": 3.235e-05, "MEAN_MOTION_DDOT": 0}, "tle": {"line1": "1 36483U 97051VZ  25342.46850589  .00003235  00000+0  90663-3 0  9996", "line2": "2 36483  86.3794  54.3174 0010875 137.8715 222.3325 14.45787314650846"}}, "geometry": {"type": "Point", "coordinates": [49.38836706305294, -49.69906444025599]}}, {"type": "Feature", "properties": {"norad_id": 36490, "name": "IRIDIUM 33 DEB", "group": "iridium-33-debris", "lat": -84.83223418216333, "lon": -123.63877841385528, "alt_km": 653.0233814922112, "timestamp": "2025-12-09T23:33:24.239865+00:00", "meta": {"OBJECT_NAME": "IRIDIUM 33 DEB", "OBJECT_ID": "1997-051WG", "EPOCH": "2025-12-09T01:12:10.854432", "MEAN_MOTION": 14.76067725, "ECCENTRICITY": 0.00055229, "INCLINATION": 86.3654, "RA_OF_ASC_NODE": 12.1269, "ARG_OF_PERICENTER": 91.2882, "MEAN_ANOMALY": 268.897, "EPHEMERIS_TYPE": 0, "CLASSIFICATION_TYPE": "U", "NORAD_CAT_ID": 36490, "ELEMENT_SET_NO": 999, "REV_AT_EPOCH": 86430, "BSTAR": 0.0018321978, "MEAN_MOTION_DOT": 0.00012668, "MEAN_MOTION_DDOT": 0}, "tle": {"line1": "1 36490U 97051WG  25343.05012563  .00012668  00000+0  18322-2 0  9993", "line2": "2 36490  86.3654  12.1269 0005522  91.2882 268.8970 14.76067725864307"}}, "geometry": {"type": "Point", "coordinates": [-123.63877841385528, -84.83223418216333]}}, {"type": "Feature", "properties": {"norad_id": 36493, "name": "IRIDIUM 33 DEB", "group": "iridium-33-debris", "lat": -62.448488016957185, "lon": 5.891164858362448, "alt_km": 682.0303409527278, "timestamp": "2025-12-09T23:33:24.239875+00:00", "meta": {"OBJECT_NAME": "IRIDIUM 33 DEB", "OBJECT_ID": "1997-051WK", "EPOCH": "2025-12-08T19:58:38.259264", "MEAN_MOTION": 14.65158506, "ECCENTRICITY": 0.00106914, "INCLINATION": 86.3572, "RA_OF_ASC_NODE": 13.4155, "ARG_OF_PERICENTER": 18.0895, "MEAN_ANOMALY": 342.0696, "EPHEMERIS_TYPE": 0, "CLASSIFICATION_TYPE": "U", "NORAD_CAT_ID": 36493, "ELEMENT_SET_NO": 999, "REV_AT_EPOCH": 74461, "BSTAR": 0.0020019244, "MEAN_MOTION_DOT": 0.00010799, "MEAN_MOTION_DDOT": 0}, "tle": {"line1": "1 36493U 97051WK  25342.83238726  .00010799  00000+0  20019-2 0  9991", "line2": "2 36493  86.3572  13.4155 0010691  18.0895 342.0696 14.65158506744618"}}, "geometry": {"type": "Point", "coordinates": [5.891164858362448, -62.448488016957185]}}, {"type": "Feature", "properties": {"norad_id": 37548, "name": "IRIDIUM 33 DEB", "group": "iridium-33-debris", "lat": -82.0343015964486, "lon": -108.30426332546362, "alt_km": 721.3340332281668, "timestamp": "2025-12-09T23:33:24.239886+00:00", "meta": {"OBJECT_NAME": "IRIDIUM 33 DEB", "OBJECT_ID": "1997-051XH", "EPOCH": "2025-12-08T21:31:39.163584", "MEAN_MOTION": 14.51252553, "ECCENTRICITY": 0.0025132, "INCLINATION": 86.3517, "RA_OF_ASC_NODE": 45.0407, "ARG_OF_PERICENTER": 201.7474, "MEAN_ANOMALY": 158.2667, "EPHEMERIS_TYPE": 0, "CLASSIFICATION_TYPE": "U", "NORAD_CAT_ID": 37548, "ELEMENT_SET_NO": 999, "REV_AT_EPOCH": 65476, "BSTAR": 0.0012917, "MEAN_MOTION_DOT": 5.175e-05, "MEAN_MOTION_DDOT": 0}, "tle": {"line1": "1 37548U 97051XH  25342.89698106  .00005175  00000+0  12917-2 0  9991", "line2": "2 37548  86.3517  45.0407 0025132 201.7474 158.2667 14.51252553654763"}}, "geometry": {"type": "Point", "coordinates": [-108.30426332546362, -82.0343015964486]}}]}